NORAD_CAT_ID,OBJECT_NAME,OBJECT_TYPE,EPOCH,MEAN_MOTION,ECCENTRICITY,INCLINATION,RA_OF_ASC_NODE,ARG_OF_PERICENTER,MEAN_ANOMALY,BSTAR,MEAN_MOTION_DOT,MEAN_MOTION_DDOT,TLE_LINE0,TLE_LINE1,TLE_LINE2,SEMIMAJOR_AXIS,PERIOD,APOGEE,PERIGEE,DECAYED
53258.0,STARLINK-4127,PAYLOAD,2023-01-17 03:28:09,15.08826613,0.0001761999999999,53.215,305.656,71.3502,288.7681,-0.00015759,-2.794e-05,0.0,0 STARLINK-4127,1 53258U 22086S   23017.14455532 -.00002794  00000-0 -15759-3 0  9997,2 53258  53.2150 305.6560 0001762  71.3502 288.7681 15.08826613 27649,6917.920999999999,95.438,541.005,538.567,0.0
53258.0,STARLINK-4127,PAYLOAD,2023-01-17 05:03:32,15.08833378,0.0001766999999999,53.2178,305.3587,69.25399999999999,290.8641,-0.000154,-2.738e-05,0.0,0 STARLINK-4127,1 53258U 22086S   23017.21079114 -.00002738  00000-0 -15400-3 0  9994,2 53258  53.2178 305.3587 0001767  69.2540 290.8641 15.08833378 27655,6917.901,95.438,540.988,538.543,0.0
53258.0,STARLINK-4127,PAYLOAD,2023-01-18 03:18:55,15.08851124,0.0001418,53.2185,301.1949,77.0222,283.0929,2.2292e-05,6.7e-07,0.0,0 STARLINK-4127,1 53258U 22086S   23018.13813889  .00000067  00000-0  22292-4 0  9990,2 53258  53.2185 301.1949 0001418  77.0222 283.0929 15.08851124 27793,6917.846,95.437,540.692,538.73,0.0
53258.0,STARLINK-4127,PAYLOAD,2023-01-18 11:15:50,15.08858987,0.0001537,53.2186,299.7103,71.3631,288.7528,-0.0001460999999999,-2.614e-05,0.0,0 STARLINK-4127,1 53258U 22086S   23018.46933745 -.00002614  00000-0 -14610-3 0  9996,2 53258  53.2186 299.7103 0001537  71.3631 288.7528 15.08858987 28029,6917.821999999999,95.436,540.751,538.624,0.0
53258.0,STARLINK-4127,PAYLOAD,2023-01-19 11:06:39,15.08818188,0.0001185,53.2186,295.2484,93.5584,266.5543,-5.511e-05,-1.164e-05,0.0,0 STARLINK-4127,1 53258U 22086S   23019.46296132 -.00001164  00000-0 -55110-4 0  9999,2 53258  53.2186 295.2484 0001185  93.5584 266.5543 15.08818188 27999,6917.946999999999,95.439,540.632,538.992,0.0
53258.0,STARLINK-4127,PAYLOAD,2023-01-20 10:57:26,15.08838888,0.0001378,53.2178,290.7888,88.2841,271.8309,-5.311399999999999e-05,-1.133e-05,0.0,0 STARLINK-4127,1 53258U 22086S   23020.45655741 -.00001133  00000-0 -53114-4 0  9993,2 53258  53.2178 290.7888 0001378  88.2841 271.8309 15.08838888 28145,6917.884,95.438,540.702,538.7959999999999,0.0
53258.0,STARLINK-4127,PAYLOAD,2023-01-21 02:51:16,15.08861008,0.0001291999999999,53.2184,287.8125,83.29899999999999,276.815,-3.9398e-06,-3.51e-06,0.0,0 STARLINK-4127,1 53258U 22086S   23021.11894160 -.00000351  00000-0 -39398-5 0  9997,2 53258  53.2184 287.8125 0001292  83.2990 276.8150 15.08861008 28248,6917.816,95.436,540.575,538.7869999999999,0.0
53258.0,STARLINK-4127,PAYLOAD,2023-01-21 17:09:45,15.08830713,0.0001146,53.2175,285.1369,87.2697,272.8426,0.00015593,2.194e-05,0.0,0 STARLINK-4127,1 53258U 22086S   23021.71511411  .00002194  00000-0  15593-3 0  9992,2 53258  53.2175 285.1369 0001146  87.2697 272.8426 15.08830713 28336,6917.909000000001,95.438,540.567,538.981,0.0
53258.0,STARLINK-4127,PAYLOAD,2023-01-22 02:42:03,15.08857915,0.0001394,53.2178,283.3545,81.7741,278.3409,0.00021841,3.191e-05,0.0,0 STARLINK-4127,1 53258U 22086S   23022.11253648  .00003191  00000-0  21841-3 0  9993,2 53258  53.2178 283.3545 0001394  81.7741 278.3409 15.08857915 28390,6917.826,95.436,540.655,538.726,0.0
53258.0,STARLINK-4127,PAYLOAD,2023-01-22 10:39:00,15.088345,0.0001057,53.2187,281.8679,95.3462,264.7651,9.6983e-06,-1.33e-06,0.0,0 STARLINK-4127,1 53258U 22086S   23022.44375559 -.00000133  00000-0  96983-5 0  9990,2 53258  53.2187 281.8679 0001057  95.3462 264.7651 15.08834500 28447,6917.897,95.438,540.493,539.031,0.0
53258.0,STARLINK-4127,PAYLOAD,2023-01-22 17:00:34,15.08817837,0.0001242999999999,53.2186,280.6791,93.662,266.4514,-0.00019094,-3.323e-05,0.0,0 STARLINK-4127,1 53258U 22086S   23022.70873470 -.00003323  00000-0 -19094-3 0  9995,2 53258  53.2186 280.6791 0001243  93.6620 266.4514 15.08817837 28487,6917.948,95.439,540.673,538.953,0.0
53258.0,STARLINK-4127,PAYLOAD,2023-01-22 23:22:06,15.08827421,7.340000000000001e-05,53.2178,279.4886,84.9538,275.1538,-8.6683e-05,-1.666e-05,0.0,0 STARLINK-4127,1 53258U 22086S   23022.97368683 -.00001666  00000-0 -86683-4 0  9996,2 53258  53.2178 279.4886 0000734  84.9538 275.1538 15.08827421 28522,6917.919,95.438,540.2919999999999,539.276,0.0
53258.0,STARLINK-4127,PAYLOAD,2023-01-23 10:29:47,15.08841819,0.0001250999999999,53.2176,277.4052,98.1858,261.9276,-0.00013268,-2.399e-05,0.0,0 STARLINK-4127,1 53258U 22086S   23023.43735974 -.00002399  00000-0 -13268-3 0  9991,2 53258  53.2176 277.4052 0001251  98.1858 261.9276 15.08841819 28596,6917.875,95.437,540.605,538.874,0.0
53258.0,STARLINK-4127,PAYLOAD,2023-01-23 23:12:51,15.08858392,0.0001107999999999,53.2169,275.0264,103.3433,256.7682,-2.3199e-05,-6.57e-06,0.0,0 STARLINK-4127,1 53258U 22086S   23023.96726610 -.00000657  00000-0 -23199-4 0  9996,2 53258  53.2169 275.0264 0001108 103.3433 256.7682 15.08858392 28672,6917.8240000000005,95.436,540.456,538.923,0.0
53258.0,STARLINK-4127,PAYLOAD,2023-01-24 19:52:53,15.08831849,0.0001216,53.216,271.1628,85.0239,275.0892,0.00019092,2.751e-05,0.0,0 STARLINK-4127,1 53258U 22086S   23024.82839576  .00002751  00000-0  19092-3 0  9999,2 53258  53.2160 271.1628 0001216  85.0239 275.0892 15.08831849 28804,6917.905,95.438,540.612,538.929,0.0
53258.0,STARLINK-4127,PAYLOAD,2023-01-24 21:28:16,15.08830875,0.0001132,53.2161,270.8653,90.1411,269.9711,0.00017291,2.464e-05,0.0,0 STARLINK-4127,1 53258U 22086S   23024.89463691  .00002464  00000-0  17291-3 0  9997,2 53258  53.2161 270.8653 0001132  90.1411 269.9711 15.08830875 28995,6917.908,95.438,540.556,538.99,0.0
53258.0,STARLINK-4127,PAYLOAD,2023-01-25 19:43:40,15.08836194,0.0001117,53.2163,266.7,99.2375,260.8744,4.739e-06,-2.12e-06,0.0,0 STARLINK-4127,1 53258U 22086S   23025.82200074 -.00000212  00000-0  47390-5 0  9990,2 53258  53.2163 266.7000 0001117  99.2375 260.8744 15.08836194 29132,6917.892,95.438,540.53,538.984,0.0
53258.0,STARLINK-4127,PAYLOAD,2023-01-26 02:05:12,15.08851179,0.0001100999999999,53.2165,265.5101,103.8355,256.276,-4.7627e-05,-1.046e-05,0.0,0 STARLINK-4127,1 53258U 22086S   23026.08695286 -.00001046  00000-0 -47627-4 0  9991,2 53258  53.2165 265.5101 0001101 103.8355 256.2760 15.08851179 28996,6917.846,95.437,540.4730000000001,538.95,0.0
53258.0,STARLINK-4127,PAYLOAD,2023-01-27 00:20:36,15.08874996,9.81e-05,53.216,261.3477,89.9624,270.148,-0.000368,-6.145e-05,0.0,0 STARLINK-4127,1 53258U 22086S   23027.01430987 -.00006145  00000-0 -36800-3 0  9995,2 53258  53.2160 261.3477 0000981  89.9624 270.1480 15.08874996 29312,6917.773,95.435,540.317,538.96,0.0
53258.0,STARLINK-4127,PAYLOAD,2023-01-27 19:25:15,15.08835616,0.0001107,53.2152,257.7795,105.343,254.7685,-2.0256e-05,-6.1e-06,0.0,0 STARLINK-4127,1 53258U 22086S   23027.80920327 -.00000610  00000-0 -20256-4 0  9994,2 53258  53.2152 257.7795 0001107 105.3430 254.7685 15.08835616 29258,6917.894,95.438,540.525,538.993,0.0
53258.0,STARLINK-4127,PAYLOAD,2023-01-27 21:00:38,15.08837782,0.000108,53.2154,257.4822,99.5502,260.5612,-1.0135e-05,-4.49e-06,0.0,0 STARLINK-4127,1 53258U 22086S   23027.87544199 -.00000449  00000-0 -10135-4 0  9995,2 53258  53.2154 257.4822 0001080  99.5502 260.5612 15.08837782 29444,6917.887,95.438,540.499,539.005,0.0
53258.0,STARLINK-4127,PAYLOAD,2023-01-28 09:43:43,15.08817301,0.000116,53.2153,255.1031,89.8194,270.2931,0.00027994,4.167e-05,0.0,0 STARLINK-4127,1 53258U 22086S   23028.40536808  .00004167  00000-0  27994-3 0  9992,2 53258  53.2153 255.1031 0001160  89.8194 270.2931 15.08817301 29344,6917.95,95.439,540.617,539.012,0.0
53258.0,STARLINK-4127,PAYLOAD,2023-01-28 19:16:01,15.0884049,0.000104,53.2153,253.3183,98.2154,261.8956,8.7258e-06,-1.49e-06,0.0,0 STARLINK-4127,1 53258U 22086S   23028.80280091 -.00000149  00000-0  87258-5 0  9994,2 53258  53.2153 253.3183 0001040  98.2154 261.8956 15.08840490 29404,6917.879,95.438,540.463,539.024,0.0
53258.0,STARLINK-4127,PAYLOAD,2023-01-28 20:51:25,15.08840787,0.0001042,53.2153,253.0209,98.4933,261.6177,1.4515e-05,-5.7e-07,0.0,0 STARLINK-4127,1 53258U 22086S   23028.86904047 -.00000057  00000-0  14515-4 0  9997,2 53258  53.2153 253.0209 0001042  98.4933 261.6177 15.08840787 29591,6917.878,95.438,540.464,539.022,0.0
53258.0,STARLINK-4127,PAYLOAD,2023-01-29 20:42:12,15.08839733,9.89e-05,53.2152,248.5608,86.2165,273.894,3.5064e-05,2.7e-06,0.0,0 STARLINK-4127,1 53258U 22086S   23029.86264083  .00000270  00000-0  35064-4 0  9995,2 53258  53.2152 248.5608 0000989  86.2165 273.8940 15.08839733 29742,6917.881,95.438,540.43,539.062,0.0
53258.0,STARLINK-4127,PAYLOAD,2023-01-29 23:52:58,15.0884195,0.0001012,53.2152,247.9662,83.081,277.0297,5.1486e-05,5.32e-06,0.0,0 STARLINK-4127,1 53258U 22086S   23029.99511888  .00000532  00000-0  51486-4 0  9994,2 53258  53.2152 247.9662 0001012  83.0810 277.0297 15.08841950 29582,6917.874,95.437,540.44,539.039,0.0
53258.0,STARLINK-4127,PAYLOAD,2023-01-30 20:32:59,15.08840717,0.0001017,53.2151,244.1007,78.8446,281.266,2.2653e-05,7.3e-07,0.0,0 STARLINK-4127,1 53258U 22086S   23030.85623965  .00000073  00000-0  22653-4 0  9995,2 53258  53.2151 244.1007 0001017  78.8446 281.2660 15.08840717 29890,6917.878,95.438,540.447,539.04,0.0
53258.0,STARLINK-4127,PAYLOAD,2023-01-31 17:13:00,15.08838327,0.0001012,53.2152,240.2343,80.2465,279.8641,-2.474e-05,-6.81e-06,0.0,0 STARLINK-4127,1 53258U 22086S   23031.71736255 -.00000681  00000-0 -24740-4 0  9994,2 53258  53.2152 240.2343 0001012  80.2465 279.8641 15.08838327 29845,6917.886,95.438,540.451,539.05,0.0
53258.0,STARLINK-4127,PAYLOAD,2023-01-31 20:23:46,15.08837465,0.0001024,53.2151,239.6399,76.6334,283.4772,-2.9788e-05,-7.62e-06,0.0,0 STARLINK-4127,1 53258U 22086S   23031.84984342 -.00000762  00000-0 -29788-4 0  9997,2 53258  53.2151 239.6399 0001024  76.6334 283.4772 15.08837465 30046,6917.888,95.438,540.462,539.045,0.0
